QIANFAN-49              
1 62250U 24232P   25290.32903663  .00000153  00000+0  21771-3 0  9997
2 62250  89.0026  46.9145 0013810   5.4784 354.6516 13.50979512 60224
QIANFAN-50              
1 62251U 24232Q   25290.35373330  .00000157  00000+0  22388-3 0  9992
2 62251  89.0030  46.9170 0015492   6.0196 354.1139 13.50980043 60250
QIANFAN-51              
1 62252U 24232R   25290.33728389  .00000152  00000+0  21661-3 0  9997
2 62252  89.0025  46.9160 0013131  11.0614 349.0824 13.50976915 60249
QIANFAN-52              
1 62253U 24232S   25290.29197236  .00000157  00000+0  22532-3 0  9997
2 62253  89.0020  46.7963 0014881   2.2825 357.8391 13.50979450 60325
QIANFAN-53              
1 62254U 24232T   25290.34555756  .00000150  00000+0  21371-3 0  9992
2 62254  89.0028  46.8912 0013795   3.7997 356.3257 13.50975144 60295
QIANFAN-54              
1 62255U 24232U   25290.31258973  .00000145  00000+0  20545-3 0  9997
2 62255  89.0021  46.5779 0003299  68.4279 291.7223 13.50977262 91793
QIANFAN-55              
1 62785U 25016A   25290.26461556  .00000088  00000+0  11709-3 0  9991
2 62785  88.9741 109.0432 0018171 146.9842 213.2448 13.50967806 39560
QIANFAN-56              
1 62786U 25016B   25290.28107003  .00000097  00000+0  13069-3 0  9999
2 62786  88.9713 108.8932 0016765 148.8409 211.3740 13.50976140 39610
